{"type": "FeatureCollection", "features": [ {"type": "Feature", "properties": {"norad_id": 41836, "name": "HIMAWARI-9", "group": "weather", "lat": 0.023140140134080587, "lon": 144.75929077908148, "alt_km": 35789.712683302976, "timestamp": "2025-12-10T18:56:59.704949+00:00", "meta": {"OBJECT_NAME": "HIMAWARI-9", "OBJECT_ID": "2016-064A", "EPOCH": "2025-12-10T08:49:38.682048", "MEAN_MOTION": 1.00268832, "ECCENTRICITY": 0.0001292, "INCLINATION": 0.0264, "RA_OF_ASC_NODE": 79.943, "ARG_OF_PERICENTER": 185.156, "MEAN_ANOMALY": 87.4277, "EPHEMERIS_TYPE": 0, "CLASSIFICATION_TYPE": "U", "NORAD_CAT_ID": 41836, "ELEMENT_SET_NO": 999, "REV_AT_EPOCH": 3331, "BSTAR": 0, "MEAN_MOTION_DOT": -2.71e-06, "MEAN_MOTION_DDOT": 0}, "tle": {"line1": "1 41836U 16064A   25344.36780882 -.00000271  00000+0  00000+0 0  9998", "line2": "2 41836   0.0264  79.9430 0001292 185.1560  87.4277  1.00268832 33313"}}, "geometry": {"type": "Point", "coordinates": [144.75929077908148, 0.023140140134080587]}}, {"type": "Feature", "properties": {"norad_id": 41866, "name": "GOES 16", "group": "weather", "lat": 0.0051180741059945545, "lon": -100.66921691044065, "alt_km": 35772.08343307871, "timestamp": "2025-12-10T18:56:59.704962+00:00", "meta": {"OBJECT_NAME": "GOES 16", "OBJECT_ID": "2016-071A", "EPOCH": "2025-12-10T10:23:06.017856", "MEAN_MOTION": 1.00271273, "ECCENTRICITY": 0.0003344, "INCLINATION": 0.0648, "RA_OF_ASC_NODE": 104.3227, "ARG_OF_PERICENTER": 157.3495, "MEAN_ANOMALY": 228.8386, "EPHEMERIS_TYPE": 0, "CLASSIFICATION_TYPE": "U", "NORAD_CAT_ID": 41866, "ELEMENT_SET_NO": 999, "REV_AT_EPOCH": 3321, "BSTAR": 0, "MEAN_MOTION_DOT": -8.7e-07, "MEAN_MOTION_DDOT": 0}, "tle": {"line1": "1 41866U 16071A   25344.43270854 -.00000087  00000+0  00000+0 0  9995", "line2": "2 41866   0.0648 104.3227 0003344 157.3495 228.8386  1.00271273 33211"}}, "geometry": {"type": "Point", "coordinates": [-100.66921691044065, 0.0051180741059945545]}}, {"type": "Feature", "properties": {"norad_id": 41882, "name": "FENGYUN 4A", "group": "weather", "lat": 1.3246189385971943, "lon": 127.79836773075503, "alt_km": 35787.86011829326, "timestamp": "2025-12-10T18:56:59.704974+00:00", "meta": {"OBJECT_NAME": "FENGYUN 4A", "OBJECT_ID": "2016-077A", "EPOCH": "2025-12-09T21:00:35.659872", "MEAN_MOTION": 1.00275053, "ECCENTRICITY": 0.00048891, "INCLINATION": 1.8422, "RA_OF_ASC_NODE": 82.422, "ARG_OF_PERICENTER": 142.7758, "MEAN_ANOMALY": 292.6612, "EPHEMERIS_TYPE": 0, "CLASSIFICATION_TYPE": "U", "NORAD_CAT_ID": 41882, "ELEMENT_SET_NO": 999, "REV_AT_EPOCH": 3303, "BSTAR": 0, "MEAN_MOTION_DOT": -3.54e-06, "MEAN_MOTION_DDOT": 0}, "tle": {"line1": "1 41882U 16077A   25343.87541273 -.00000354  00000+0  00000+0 0  9999", "line2": "2 41882   1.8422  82.4220 0004889 142.7758 292.6612  1.00275053 33033"}}, "geometry": {"type": "Point", "coordinates": [127.79836773075503, 1.3246189385971943]}}, {"type": "Feature", "properties": {"norad_id": 41884, "name": "CYGFM05", "group": "weather", "lat": -34.432627581506026, "lon": -19.011628642571164, "alt_km": 428.7357755937146, "timestamp": "2025-12-10T18:56:59.704985+00:00", "meta": {"OBJECT_NAME": "CYGFM05", "OBJECT_ID": "2016-078A", "EPOCH": "2025-12-10T11:33:25.680672", "MEAN_MOTION": 15.47503338, "ECCENTRICITY": 0.0009794, "INCLINATION": 34.9599, "RA_OF_ASC_NODE": 61.8808, "ARG_OF_PERICENTER": 162.5762, "MEAN_ANOMALY": 197.5297, "EPHEMERIS_TYPE": 0, "CLASSIFICATION_TYPE": "U", "NORAD_CAT_ID": 41884, "ELEMENT_SET_NO": 999, "REV_AT_EPOCH": 49941, "BSTAR": 0.00051452, "MEAN_MOTION_DOT": 0.0002734, "MEAN_MOTION_DDOT": 0}, "tle": {"line1": "1 41884U 16078A   25344.48154723  .00027340  00000+0  51452-3 0  9994", "line2": "2 41884  34.9599  61.8808 0009794 162.5762 197.5297 15.47503338499411"}}, "geometry": {"type": "Point", "coordinates": [-19.011628642571164, -34.432627581506026]}}, {"type": "Feature", "properties": {"norad_id": 41885, "name": "CYGFM04", "group": "weather", "lat": 21.94289444507729, "lon": 179.45181683375424, "alt_km": 408.04166155374696, "timestamp": "2025-12-10T18:56:59.704996+00:00", "meta": {"OBJECT_NAME": "CYGFM04", "OBJECT_ID": "2016-078B", "EPOCH": "2025-12-10T12:10:11.957376", "MEAN_MOTION": 15.50209953, "ECCENTRICITY": 0.0009183, "INCLINATION": 34.9355, "RA_OF_ASC_NODE": 36.555, "ARG_OF_PERICENTER": 190.5613, "MEAN_ANOMALY": 169.4917, "EPHEMERIS_TYPE": 0, "CLASSIFICATION_TYPE": "U", "NORAD_CAT_ID": 41885, "ELEMENT_SET_NO": 999, "REV_AT_EPOCH": 49959, "BSTAR": 0.00052239, "MEAN_MOTION_DOT": 0.00030547, "MEAN_MOTION_DDOT": 0}, "tle": {"line1": "1 41885U 16078B   25344.50708284  .00030547  00000+0  52239-3 0  9992", "line2": "2 41885  34.9355  36.5550 0009183 190.5613 169.4917 15.50209953499599"}}, "geometry": {"type": "Point", "coordinates": [179.45181683375424, 21.94289444507729]}}, {"type": "Feature", "properties": {"norad_id": 41886, "name": "CYGFM02", "group": "weather", "lat": 20.356765580348874, "lon": -179.04489884910518, "alt_km": 403.2375837669015, "timestamp": "2025-12-10T18:56:59.705007+00:00", "meta": {"OBJECT_NAME": "CYGFM02", "OBJECT_ID": "2016-078C", "EPOCH": "2025-12-10T10:37:02.703360", "MEAN_MOTION": 15.51574732, "ECCENTRICITY": 0.0010869, "INCLINATION": 34.9444, "RA_OF_ASC_NODE": 35.3352, "ARG_OF_PERICENTER": 189.4667, "MEAN_ANOMALY": 170.5851, "EPHEMERIS_TYPE": 0, "CLASSIFICATION_TYPE": "U", "NORAD_CAT_ID": 41886, "ELEMENT_SET_NO": 999, "REV_AT_EPOCH": 49971, "BSTAR": 0.00052963, "MEAN_MOTION_DOT": 0.00032552, "MEAN_MOTION_DDOT": 0}, "tle": {"line1": "1 41886U 16078C   25344.44239240  .00032552  00000+0  52963-3 0  9999", "line2": "2 41886  34.9444  35.3352 0010869 189.4667 170.5851 15.51574732499710"}}, "geometry": {"type": "Point", "coordinates": [-179.04489884910518, 20.356765580348874]}}, {"type": "Feature", "properties": {"norad_id": 41887, "name": "CYGFM01", "group": "weather", "lat": -21.980463881823717, "lon": 26.91676731132471, "alt_km": 429.59397310856457, "timestamp": "2025-12-10T18:56:59.705017+00:00", "meta": {"OBJECT_NAME": "CYGFM01", "OBJECT_ID": "2016-078D", "EPOCH": "2025-12-10T11:23:14.678016", "MEAN_MOTION": 15.48077649, "ECCENTRICITY": 0.0009391, "INCLINATION": 34.943, "RA_OF_ASC_NODE": 64.2923, "ARG_OF_PERICENTER": 154.4149, "MEAN_ANOMALY": 205.7039, "EPHEMERIS_TYPE": 0, "CLASSIFICATION_TYPE": "U", "NORAD_CAT_ID": 41887, "ELEMENT_SET_NO": 999, "REV_AT_EPOCH": 49935, "BSTAR": 0.00051341, "MEAN_MOTION_DOT": 0.00027833, "MEAN_MOTION_DDOT": 0}, "tle": {"line1": "1 41887U 16078D   25344.47447544  .00027833  00000+0  51341-3 0  9996", "line2": "2 41887  34.9430  64.2923 0009391 154.4149 205.7039 15.48077649499356"}}, "geometry": {"type": "Point", "coordinates": [26.91676731132471, -21.980463881823717]}}, {"type": "Feature", "properties": {"norad_id": 41888, "name": "CYGFM08", "group": "weather", "lat": -0.5373921327339405, "lon": 44.47759903917378, "alt_km": 425.379788215826, "timestamp": "2025-12-10T18:56:59.705028+00:00", "meta": {"OBJECT_NAME": "CYGFM08", "OBJECT_ID": "2016-078E", "EPOCH": "2025-12-10T11:13:17.577120", "MEAN_MOTION": 15.49276965, "ECCENTRICITY": 0.0011255, "INCLINATION": 34.9463, "RA_OF_ASC_NODE": 47.3562, "ARG_OF_PERICENTER": 178.1643, "MEAN_ANOMALY": 181.9121, "EPHEMERIS_TYPE": 0, "CLASSIFICATION_TYPE": "U", "NORAD_CAT_ID": 41888, "ELEMENT_SET_NO": 999, "REV_AT_EPOCH": 49958, "BSTAR": 0.00052757, "MEAN_MOTION_DOT": 0.00029867, "MEAN_MOTION_DDOT": 0}, "tle": {"line1": "1 41888U 16078E   25344.46756455  .00029867  00000+0  52757-3 0  9991", "line2": "2 41888  34.9463  47.3562 0011255 178.1643 181.9121 15.49276965499583"}}, "geometry": {"type": "Point", "coordinates": [44.47759903917378, -0.5373921327339405]}}, {"type": "Feature", "properties": {"norad_id": 41890, "name": "CYGFM07", "group": "weather", "lat": -9.775726840283495, "lon": 19.95577345983313, "alt_km": 422.44116886527536, "timestamp": "2025-12-10T18:56:59.705039+00:00", "meta": {"OBJECT_NAME": "CYGFM07", "OBJECT_ID": "2016-078G", "EPOCH": "2025-12-10T11:17:40.555392", "MEAN_MOTION": 15.49854038, "ECCENTRICITY": 0.0009645, "INCLINATION": 34.9482, "RA_OF_ASC_NODE": 36.3296, "ARG_OF_PERICENTER": 196.011, "MEAN_ANOMALY": 164.0308, "EPHEMERIS_TYPE": 0, "CLASSIFICATION_TYPE": "U", "NORAD_CAT_ID": 41890, "ELEMENT_SET_NO": 999, "REV_AT_EPOCH": 49960, "BSTAR": 0.00052319, "MEAN_MOTION_DOT": 0.00030212, "MEAN_MOTION_DDOT": 0}, "tle": {"line1": "1 41890U 16078G   25344.47060828  .00030212  00000+0  52319-3 0  9997", "line2": "2 41890  34.9482  36.3296 0009645 196.0110 164.0308 15.49854038499602"}}, "geometry": {"type": "Point", "coordinates": [19.95577345983313, -9.775726840283495]}}, {"type": "Feature", "properties": {"norad_id": 41891, "name": "CYGFM03", "group": "weather", "lat": 1.0088458992988467, "lon": -145.28907609682142, "alt_km": 410.1121749530075, "timestamp": "2025-12-10T18:56:59.705049+00:00", "meta": {"OBJECT_NAME": "CYGFM03", "OBJECT_ID": "2016-078H", "EPOCH": "2025-12-10T12:00:03.543264", "MEAN_MOTION": 15.49757356, "ECCENTRICITY": 0.0008964, "INCLINATION": 34.9435, "RA_OF_ASC_NODE": 38.0538, "ARG_OF_PERICENTER": 183.3177, "MEAN_ANOMALY": 176.7487, "EPHEMERIS_TYPE": 0, "CLASSIFICATION_TYPE": "U", "NORAD_CAT_ID": 41891, "ELEMENT_SET_NO": 999, "REV_AT_EPOCH": 49958, "BSTAR": 0.000522, "MEAN_MOTION_DOT": 0.00030031, "MEAN_MOTION_DDOT": 0}, "tle": {"line1": "1 41891U 16078H   25344.50004101  .00030031  00000+0  52200-3 0  9992", "line2": "2 41891  34.9435  38.0538 0008964 183.3177 176.7487 15.49757356499584"}}, "geometry": {"type": "Point", "coordinates": [-145.28907609682142, 1.0088458992988467]}}]}